OBJECT_NAME,OBJECT_ID,EPOCH,MEAN_MOTION,ECCENTRICITY,INCLINATION,RA_OF_ASC_NODE,ARG_OF_PERICENTER,MEAN_ANOMALY,EPHEMERIS_TYPE,CLASSIFICATION_TYPE,NORAD_CAT_ID,ELEMENT_SET_NO,REV_AT_EPOCH,BSTAR,MEAN_MOTION_DOT,MEAN_MOTION_DDOT
SPACEMOBILE-008,2026-139A,2026-07-07T10:09:20.829600,15.12794365,.0004639,52.9937,170.6932,37.6326,322.4989,0,U,69589,999,304,.5146E-4,.613E-5,0
SPACEMOBILE-009,2026-139B,2026-07-07T08:36:14.501088,15.12687590,.0004892,52.9928,170.9976,32.8078,327.3216,0,U,69590,999,303,.50953E-4,.601E-5,0
SPACEMOBILE-010,2026-139C,2026-07-07T10:14:37.011264,15.12518827,.0004774,52.9932,170.7141,24.0576,336.0637,0,U,69591,999,305,.50381E-4,.587E-5,0
